{
  "type": "FeatureCollection",
  "features": [
    {
      "type": "Feature",
      "properties": {
        "norad_id": 29930,
        "name": "FENGYUN 1C DEB",
        "group": "fengyun-1c-debris",
        "lat": -33.572404495834576,
        "lon": -129.06331946493808,
        "alt_km": 845.1207126357185,
        "timestamp": "2025-12-08T17:43:05.203380+00:00",
        "meta_object_name": "FENGYUN 1C DEB",
        "meta_object_id": "1999-025JC",
        "meta_epoch": "2025-12-08T06:37:31.604736",
        "meta_mean_motion": 14.208096,
        "meta_eccentricity": 0.01646348,
        "meta_inclination": 99.0445,
        "meta_ra_of_asc_node": 224.3952,
        "meta_arg_of_pericenter": 66.2517,
        "meta_mean_anomaly": 58.9002,
        "meta_ephemeris_type": 0,
        "meta_classification_type": "U",
        "meta_norad_cat_id": 29930,
        "meta_element_set_no": 999,
        "meta_rev_at_epoch": 97827,
        "meta_bstar": 0.00041872372,
        "meta_mean_motion_dot": 9.91e-06,
        "meta_mean_motion_ddot": 0,
        "tle_line1": "1 29930U 99025JC  25342.27606024  .00000991  00000+0  41872-3 0  9994",
        "tle_line2": "2 29930  99.0445 224.3952 0164634  66.2517  58.9002 14.20809600978271"
      },
      "geometry": {
        "type": "Point",
        "coordinates": [
          -129.06331946493808,
          -33.572404495834576
        ]
      }
    },
    {
      "type": "Feature",
      "properties": {
        "norad_id": 29931,
        "name": "FENGYUN 1C DEB",
        "group": "fengyun-1c-debris",
        "lat": -33.11316816128643,
        "lon": -167.6906571553144,
        "alt_km": 894.0897897067389,
        "timestamp": "2025-12-08T17:43:05.203390+00:00",
        "meta_object_name": "FENGYUN 1C DEB",
        "meta_object_id": "1999-025JD",
        "meta_epoch": "2025-12-08T01:27:11.881152",
        "meta_mean_motion": 14.03888942,
        "meta_eccentricity": 0.00326576,
        "meta_inclination": 98.8599,
        "meta_ra_of_asc_node": 17.4877,
        "meta_arg_of_pericenter": 106.3286,
        "meta_mean_anomaly": 283.5744,
        "meta_ephemeris_type": 0,
        "meta_classification_type": "U",
        "meta_norad_cat_id": 29931,
        "meta_element_set_no": 999,
        "meta_rev_at_epoch": 96747,
        "meta_bstar": 0.00017359607,
        "meta_mean_motion_dot": 2.32e-06,
        "meta_mean_motion_ddot": 0,
        "tle_line1": "1 29931U 99025JD  25342.06055418  .00000232  00000+0  17360-3 0  9990",
        "tle_line2": "2 29931  98.8599  17.4877 0032657 106.3286 283.5744 14.03888942967470"
      },
      "geometry": {
        "type": "Point",
        "coordinates": [
          -167.6906571553144,
          -33.11316816128643
        ]
      }
    },
    {
      "type": "Feature",
      "properties": {
        "norad_id": 29932,
        "name": "FENGYUN 1C DEB",
        "group": "fengyun-1c-debris",
        "lat": 58.115372449655275,
        "lon": -172.32037707030582,
        "alt_km": 809.0597275489454,
        "timestamp": "2025-12-08T17:43:05.203401+00:00",
        "meta_object_name": "FENGYUN 1C DEB",
        "meta_object_id": "1999-025JE",
        "meta_epoch": "2025-12-08T07:04:36.613344",
        "meta_mean_motion": 14.16755357,
        "meta_eccentricity": 0.0038621,
        "meta_inclination": 98.6342,
        "meta_ra_of_asc_node": 353.1117,
        "meta_arg_of_pericenter": 82.8541,
        "meta_mean_anomaly": 297.4832,
        "meta_ephemeris_type": 0,
        "meta_classification_type": "U",
        "meta_norad_cat_id": 29932,
        "meta_element_set_no": 999,
        "meta_rev_at_epoch": 97521,
        "meta_bstar": 0.00050621811,
        "meta_mean_motion_dot": 9.78e-06,
        "meta_mean_motion_ddot": 0,
        "tle_line1": "1 29932U 99025JE  25342.29486821  .00000978  00000+0  50622-3 0  9997",
        "tle_line2": "2 29932  98.6342 353.1117 0038621  82.8541 297.4832 14.16755357975211"
      },
      "geometry": {
        "type": "Point",
        "coordinates": [
          -172.32037707030582,
          58.115372449655275
        ]
      }
    },
    {
      "type": "Feature",
      "properties": {
        "norad_id": 29933,
        "name": "FENGYUN 1C DEB",
        "group": "fengyun-1c-debris",
        "lat": -34.05031875750205,
        "lon": -100.29411570313711,
        "alt_km": 683.0388122571294,
        "timestamp": "2025-12-08T17:43:05.203411+00:00",
        "meta_object_name": "FENGYUN 1C DEB",
        "meta_object_id": "1999-025JF",
        "meta_epoch": "2025-12-08T05:35:12.763104",
        "meta_mean_motion": 14.65623485,
        "meta_eccentricity": 0.00040033,
        "meta_inclination": 98.7494,
        "meta_ra_of_asc_node": 85.1419,
        "meta_arg_of_pericenter": 346.8888,
        "meta_mean_anomaly": 82.1208,
        "meta_ephemeris_type": 0,
        "meta_classification_type": "U",
        "meta_norad_cat_id": 29933,
        "meta_element_set_no": 999,
        "meta_rev_at_epoch": 98439,
        "meta_bstar": 0.004185078,
        "meta_mean_motion_dot": 0.00022761,
        "meta_mean_motion_ddot": 0,
        "tle_line1": "1 29933U 99025JF  25342.23278661  .00022761  00000+0  41851-2 0  9990",
        "tle_line2": "2 29933  98.7494  85.1419 0004003 346.8888  82.1208 14.65623485984397"
      },
      "geometry": {
        "type": "Point",
        "coordinates": [
          -100.29411570313711,
          -34.05031875750205
        ]
      }
    },
    {
      "type": "Feature",
      "properties": {
        "norad_id": 29934,
        "name": "FENGYUN 1C DEB",
        "group": "fengyun-1c-debris",
        "lat": 7.669121756060116,
        "lon": -149.50571210837833,
        "alt_km": 685.5025449705363,
        "timestamp": "2025-12-08T17:43:05.203421+00:00",
        "meta_object_name": "FENGYUN 1C DEB",
        "meta_object_id": "1999-025JG",
        "meta_epoch": "2025-12-08T02:09:29.852640",
        "meta_mean_motion": 14.63721208,
        "meta_eccentricity": 0.01005891,
        "meta_inclination": 98.9038,
        "meta_ra_of_asc_node": 28.5847,
        "meta_arg_of_pericenter": 266.6495,
        "meta_mean_anomaly": 92.3194,
        "meta_ephemeris_type": 0,
        "meta_classification_type": "U",
        "meta_norad_cat_id": 29934,
        "meta_element_set_no": 999,
        "meta_rev_at_epoch": 99704,
        "meta_bstar": 0.0011607974,
        "meta_mean_motion_dot": 6.45e-05,
        "meta_mean_motion_ddot": 0,
        "tle_line1": "1 29934U 99025JG  25342.08992885  .00006450  00000+0  11608-2 0  9999",
        "tle_line2": "2 29934  98.9038  28.5847 0100589 266.6495  92.3194 14.63721208997042"
      },
      "geometry": {
        "type": "Point",
        "coordinates": [
          -149.50571210837833,
          7.669121756060116
        ]
      }
    },
    {
      "type": "Feature",
      "properties": {
        "norad_id": 29935,
        "name": "FENGYUN 1C DEB",
        "group": "fengyun-1c-debris",
        "lat": -66.22070845832468,
        "lon": 64.89247535011201,
        "alt_km": 804.4458024808264,
        "timestamp": "2025-12-08T17:43:05.203432+00:00",
        "meta_object_name": "FENGYUN 1C DEB",
        "meta_object_id": "1999-025JH",
        "meta_epoch": "2025-12-08T02:54:04.824288",
        "meta_mean_motion": 14.14234471,
        "meta_eccentricity": 0.0149964,
        "meta_inclination": 98.462,
        "meta_ra_of_asc_node": 44.561,
        "meta_arg_of_pericenter": 229.4646,
        "meta_mean_anomaly": 159.9575,
        "meta_ephemeris_type": 0,
        "meta_classification_type": "U",
        "meta_norad_cat_id": 29935,
        "meta_element_set_no": 999,
        "meta_rev_at_epoch": 97477,
        "meta_bstar": 0.00019259975,
        "meta_mean_motion_dot": 3.68e-06,
        "meta_mean_motion_ddot": 0,
        "tle_line1": "1 29935U 99025JH  25342.12088917  .00000368  00000+0  19260-3 0  9992",
        "tle_line2": "2 29935  98.4620  44.5610 0149964 229.4646 159.9575 14.14234471974771"
      },
      "geometry": {
        "type": "Point",
        "coordinates": [
          64.89247535011201,
          -66.22070845832468
        ]
      }
    },
    {
      "type": "Feature",
      "properties": {
        "norad_id": 29936,
        "name": "FENGYUN 1C DEB",
        "group": "fengyun-1c-debris",
        "lat": 26.099575862981588,
        "lon": 91.82544215936429,
        "alt_km": 853.7450586474852,
        "timestamp": "2025-12-08T17:43:05.203442+00:00",
        "meta_object_name": "FENGYUN 1C DEB",
        "meta_object_id": "1999-025JJ",
        "meta_epoch": "2025-12-08T07:33:14.468256",
        "meta_mean_motion": 14.35303354,
        "meta_eccentricity": 0.01137556,
        "meta_inclination": 98.6562,
        "meta_ra_of_asc_node": 95.6805,
        "meta_arg_of_pericenter": 200.1499,
        "meta_mean_anomaly": 159.5177,
        "meta_ephemeris_type": 0,
        "meta_classification_type": "U",
        "meta_norad_cat_id": 29936,
        "meta_element_set_no": 999,
        "meta_rev_at_epoch": 98867,
        "meta_bstar": 0.00041856749,
        "meta_mean_motion_dot": 1.243e-05,
        "meta_mean_motion_ddot": 0,
        "tle_line1": "1 29936U 99025JJ  25342.31475079  .00001243  00000+0  41857-3 0  9993",
        "tle_line2": "2 29936  98.6562  95.6805 0113755 200.1499 159.5177 14.35303354988671"
      },
      "geometry": {
        "type": "Point",
        "coordinates": [
          91.82544215936429,
          26.099575862981588
        ]
      }
    }
  ]
}